HULIANWANG DIGUI-76     
1 65308U 25187D   26195.90381674 -.00000104  00000+0  43140-4 0  9997
2 65308  50.0009 106.5897 0000085 345.8963  14.1906 13.29323727 43383
HULIANWANG DIGUI-77     
1 65309U 25187E   26195.89535953 -.00000103  00000+0  45644-4 0  9997
2 65309  50.0043 106.6335 0000130 207.5110 152.5755 13.29323628 43388
HULIANWANG DIGUI-78     
1 65310U 25187F   26195.92888481 -.00000110  00000+0  30730-4 0  9998
2 65310  50.0109 106.3168 0000120 306.8071  53.2791 13.29322765 43391
HULIANWANG DIGUI-79     
1 65311U 25187G   26195.91209761 -.00000115  00000+0  20489-4 0  9991
2 65311  50.0039 106.7077 0000174 308.4828  51.6029 13.29319492 43382
HULIANWANG DIGUI-80     
1 65312U 25187H   26195.88702374 -.00000107  00000+0  36550-4 0  9993
2 65312  50.0029 106.5542 0000123 212.3252 147.7613 13.29322745 43386
HULIANWANG DIGUI-81     
1 65313U 25187J   26195.94557217 -.00000102  00000+0  48188-4 0  9990
2 65313  50.0069 106.3009 0000134 301.7182  58.3677 13.29319636 43409
HULIANWANG DIGUI-82     
1 65817U 25220A   26195.58833174  .00000050  00000+0  82174-4 0  9990
2 65817  86.4951  34.6039 0002134 101.0540 259.0834 13.24409614 38543
HULIANWANG DIGUI-83     
1 65818U 25220B   26195.58084300  .00000053  00000+0  89379-4 0  9997
2 65818  86.4973  34.6653 0002157 100.0063 260.1315 13.24409876 38541
HULIANWANG DIGUI-84     
1 65819U 25220C   26195.57325078  .00000053  00000+0  89217-4 0  9998
2 65819  86.4910  34.4796 0002101 100.5622 259.5749 13.24409703 38546
HULIANWANG DIGUI-85     
1 65820U 25220D   26195.94343416  .00000033  00000+0  42148-4 0  9997
2 65820  86.4971  34.5257 0002077 102.1553 257.9813 13.24408626 38593
HULIANWANG DIGUI-86     
1 65821U 25220E   26195.63383031  .00000029  00000+0  32376-4 0  9998
2 65821  86.4951  34.5621 0002066  85.0729 275.0641 13.24411436 38558
HULIANWANG DIGUI-87     
1 65995U 25231A   26195.90632711 -.00000103  00000+0  44352-4 0  9995
2 65995  50.0005  76.4167 0000510 349.3364  10.7497 13.29328107 36570
HULIANWANG DIGUI-88     
1 65996U 25231B   26195.91470181 -.00000105  00000+0  41325-4 0  9997
2 65996  49.9990  76.4334 0000517 332.6720  27.4125 13.29323724 36578
HULIANWANG DIGUI-89     
1 65997U 25231C   26195.89795485 -.00000107  00000+0  37418-4 0  9992
2 65997  49.9968  76.2990 0000573 339.7604  20.3246 13.29327890 36575
HULIANWANG DIGUI-90     
1 65998U 25231D   26195.88966990 -.00000102  00000+0  48251-4 0  9995
2 65998  50.0000  76.3180 0000525 335.7644  24.3203 13.29326326 36575
HULIANWANG DIGUI-91     
1 65999U 25231E   26195.88131274 -.00000099  00000+0  54031-4 0  9993
2 65999  50.0019  76.3171 0000519 336.4550  23.6298 13.29326968 36571
