{"fetched_at":"2026-07-15T06:36:07.156Z","source":"https://celestrak.org/NORAD/elements/gp.php?NAME=HULIANWANG&FORMAT=JSON","constellation":"guowang","records":[{"OBJECT_NAME":"HULIANWANG DIGUI-76","OBJECT_ID":"2025-187D","EPOCH":"2026-07-14T21:41:29.766336","CLASSIFICATION_TYPE":"U","MEAN_MOTION":13.29323727,"ECCENTRICITY":0.00000857,"INCLINATION":50.0009,"RA_OF_ASC_NODE":106.5897,"ARG_OF_PERICENTER":345.8963,"MEAN_ANOMALY":14.1906,"EPHEMERIS_TYPE":0,"NORAD_CAT_ID":65308,"ELEMENT_SET_NO":999,"REV_AT_EPOCH":4338,"BSTAR":0.000043139511,"MEAN_MOTION_DOT":-0.00000104,"MEAN_MOTION_DDOT":0},{"OBJECT_NAME":"HULIANWANG DIGUI-77","OBJECT_ID":"2025-187E","EPOCH":"2026-07-14T21:29:19.063392","CLASSIFICATION_TYPE":"U","MEAN_MOTION":13.29323628,"ECCENTRICITY":0.00001308,"INCLINATION":50.0043,"RA_OF_ASC_NODE":106.6335,"ARG_OF_PERICENTER":207.511,"MEAN_ANOMALY":152.5755,"EPHEMERIS_TYPE":0,"NORAD_CAT_ID":65309,"ELEMENT_SET_NO":999,"REV_AT_EPOCH":4338,"BSTAR":0.000045643574,"MEAN_MOTION_DOT":-0.00000103,"MEAN_MOTION_DDOT":0},{"OBJECT_NAME":"HULIANWANG DIGUI-78","OBJECT_ID":"2025-187F","EPOCH":"2026-07-14T22:17:35.647584","CLASSIFICATION_TYPE":"U","MEAN_MOTION":13.29322765,"ECCENTRICITY":0.00001209,"INCLINATION":50.0109,"RA_OF_ASC_NODE":106.3168,"ARG_OF_PERICENTER":306.8071,"MEAN_ANOMALY":53.2791,"EPHEMERIS_TYPE":0,"NORAD_CAT_ID":65310,"ELEMENT_SET_NO":999,"REV_AT_EPOCH":4339,"BSTAR":0.000030730088,"MEAN_MOTION_DOT":-0.0000011,"MEAN_MOTION_DDOT":0},{"OBJECT_NAME":"HULIANWANG DIGUI-79","OBJECT_ID":"2025-187G","EPOCH":"2026-07-14T21:53:25.233504","CLASSIFICATION_TYPE":"U","MEAN_MOTION":13.29319492,"ECCENTRICITY":0.00001746,"INCLINATION":50.0039,"RA_OF_ASC_NODE":106.7077,"ARG_OF_PERICENTER":308.4828,"MEAN_ANOMALY":51.6029,"EPHEMERIS_TYPE":0,"NORAD_CAT_ID":65311,"ELEMENT_SET_NO":999,"REV_AT_EPOCH":4338,"BSTAR":0.000020489454,"MEAN_MOTION_DOT":-0.00000115,"MEAN_MOTION_DDOT":0},{"OBJECT_NAME":"HULIANWANG DIGUI-80","OBJECT_ID":"2025-187H","EPOCH":"2026-07-14T21:17:18.851136","CLASSIFICATION_TYPE":"U","MEAN_MOTION":13.29322745,"ECCENTRICITY":0.0000123,"INCLINATION":50.0029,"RA_OF_ASC_NODE":106.5542,"ARG_OF_PERICENTER":212.3252,"MEAN_ANOMALY":147.7613,"EPHEMERIS_TYPE":0,"NORAD_CAT_ID":65312,"ELEMENT_SET_NO":999,"REV_AT_EPOCH":4338,"BSTAR":0.000036550467,"MEAN_MOTION_DOT":-0.00000107,"MEAN_MOTION_DDOT":0},{"OBJECT_NAME":"HULIANWANG DIGUI-81","OBJECT_ID":"2025-187J","EPOCH":"2026-07-14T22:41:37.435488","CLASSIFICATION_TYPE":"U","MEAN_MOTION":13.29319636,"ECCENTRICITY":0.00001347,"INCLINATION":50.0069,"RA_OF_ASC_NODE":106.3009,"ARG_OF_PERICENTER":301.7182,"MEAN_ANOMALY":58.3677,"EPHEMERIS_TYPE":0,"NORAD_CAT_ID":65313,"ELEMENT_SET_NO":999,"REV_AT_EPOCH":4340,"BSTAR":0.000048187898,"MEAN_MOTION_DOT":-0.00000102,"MEAN_MOTION_DDOT":0},{"OBJECT_NAME":"HULIANWANG DIGUI-82","OBJECT_ID":"2025-220A","EPOCH":"2026-07-14T14:07:11.862336","CLASSIFICATION_TYPE":"U","MEAN_MOTION":13.24409614,"ECCENTRICITY":0.0002134,"INCLINATION":86.4951,"RA_OF_ASC_NODE":34.6039,"ARG_OF_PERICENTER":101.054,"MEAN_ANOMALY":259.0834,"EPHEMERIS_TYPE":0,"NORAD_CAT_ID":65817,"ELEMENT_SET_NO":999,"REV_AT_EPOCH":3854,"BSTAR":0.000082174,"MEAN_MOTION_DOT":5e-7,"MEAN_MOTION_DDOT":0},{"OBJECT_NAME":"HULIANWANG DIGUI-83","OBJECT_ID":"2025-220B","EPOCH":"2026-07-14T13:56:24.835200","CLASSIFICATION_TYPE":"U","MEAN_MOTION":13.24409876,"ECCENTRICITY":0.0002157,"INCLINATION":86.4973,"RA_OF_ASC_NODE":34.6653,"ARG_OF_PERICENTER":100.0063,"MEAN_ANOMALY":260.1315,"EPHEMERIS_TYPE":0,"NORAD_CAT_ID":65818,"ELEMENT_SET_NO":999,"REV_AT_EPOCH":3854,"BSTAR":0.000089379,"MEAN_MOTION_DOT":5.3e-7,"MEAN_MOTION_DDOT":0},{"OBJECT_NAME":"HULIANWANG DIGUI-84","OBJECT_ID":"2025-220C","EPOCH":"2026-07-14T13:45:28.867392","CLASSIFICATION_TYPE":"U","MEAN_MOTION":13.24409703,"ECCENTRICITY":0.0002101,"INCLINATION":86.491,"RA_OF_ASC_NODE":34.4796,"ARG_OF_PERICENTER":100.5622,"MEAN_ANOMALY":259.5749,"EPHEMERIS_TYPE":0,"NORAD_CAT_ID":65819,"ELEMENT_SET_NO":999,"REV_AT_EPOCH":3854,"BSTAR":0.000089217,"MEAN_MOTION_DOT":5.3e-7,"MEAN_MOTION_DDOT":0},{"OBJECT_NAME":"HULIANWANG DIGUI-85","OBJECT_ID":"2025-220D","EPOCH":"2026-07-14T22:38:32.711424","CLASSIFICATION_TYPE":"U","MEAN_MOTION":13.24408626,"ECCENTRICITY":0.00020777,"INCLINATION":86.4971,"RA_OF_ASC_NODE":34.5257,"ARG_OF_PERICENTER":102.1553,"MEAN_ANOMALY":257.9813,"EPHEMERIS_TYPE":0,"NORAD_CAT_ID":65820,"ELEMENT_SET_NO":999,"REV_AT_EPOCH":3859,"BSTAR":0.000042148008,"MEAN_MOTION_DOT":3.3e-7,"MEAN_MOTION_DDOT":0},{"OBJECT_NAME":"HULIANWANG DIGUI-86","OBJECT_ID":"2025-220E","EPOCH":"2026-07-14T15:12:42.938784","CLASSIFICATION_TYPE":"U","MEAN_MOTION":13.24411436,"ECCENTRICITY":0.00020666,"INCLINATION":86.4951,"RA_OF_ASC_NODE":34.5621,"ARG_OF_PERICENTER":85.0729,"MEAN_ANOMALY":275.0641,"EPHEMERIS_TYPE":0,"NORAD_CAT_ID":65821,"ELEMENT_SET_NO":999,"REV_AT_EPOCH":3855,"BSTAR":0.000032376404,"MEAN_MOTION_DOT":2.9e-7,"MEAN_MOTION_DDOT":0},{"OBJECT_NAME":"HULIANWANG DIGUI-87","OBJECT_ID":"2025-231A","EPOCH":"2026-07-14T21:45:06.662304","CLASSIFICATION_TYPE":"U","MEAN_MOTION":13.29328107,"ECCENTRICITY":0.00005108,"INCLINATION":50.0005,"RA_OF_ASC_NODE":76.4167,"ARG_OF_PERICENTER":349.3364,"MEAN_ANOMALY":10.7497,"EPHEMERIS_TYPE":0,"NORAD_CAT_ID":65995,"ELEMENT_SET_NO":999,"REV_AT_EPOCH":3657,"BSTAR":0.000044352325,"MEAN_MOTION_DOT":-0.00000103,"MEAN_MOTION_DDOT":0},{"OBJECT_NAME":"HULIANWANG DIGUI-88","OBJECT_ID":"2025-231B","EPOCH":"2026-07-14T21:57:10.236384","CLASSIFICATION_TYPE":"U","MEAN_MOTION":13.29323724,"ECCENTRICITY":0.00005178,"INCLINATION":49.999,"RA_OF_ASC_NODE":76.4334,"ARG_OF_PERICENTER":332.672,"MEAN_ANOMALY":27.4125,"EPHEMERIS_TYPE":0,"NORAD_CAT_ID":65996,"ELEMENT_SET_NO":999,"REV_AT_EPOCH":3657,"BSTAR":0.000041325298,"MEAN_MOTION_DOT":-0.00000105,"MEAN_MOTION_DDOT":0},{"OBJECT_NAME":"HULIANWANG DIGUI-89","OBJECT_ID":"2025-231C","EPOCH":"2026-07-14T21:33:03.299040","CLASSIFICATION_TYPE":"U","MEAN_MOTION":13.2932789,"ECCENTRICITY":0.00005736,"INCLINATION":49.9968,"RA_OF_ASC_NODE":76.299,"ARG_OF_PERICENTER":339.7604,"MEAN_ANOMALY":20.3246,"EPHEMERIS_TYPE":0,"NORAD_CAT_ID":65997,"ELEMENT_SET_NO":999,"REV_AT_EPOCH":3657,"BSTAR":0.000037418392,"MEAN_MOTION_DOT":-0.00000107,"MEAN_MOTION_DDOT":0},{"OBJECT_NAME":"HULIANWANG DIGUI-90","OBJECT_ID":"2025-231D","EPOCH":"2026-07-14T21:21:07.479360","CLASSIFICATION_TYPE":"U","MEAN_MOTION":13.29326326,"ECCENTRICITY":0.00005252,"INCLINATION":50,"RA_OF_ASC_NODE":76.318,"ARG_OF_PERICENTER":335.7644,"MEAN_ANOMALY":24.3203,"EPHEMERIS_TYPE":0,"NORAD_CAT_ID":65998,"ELEMENT_SET_NO":999,"REV_AT_EPOCH":3657,"BSTAR":0.000048251105,"MEAN_MOTION_DOT":-0.00000102,"MEAN_MOTION_DDOT":0},{"OBJECT_NAME":"HULIANWANG DIGUI-91","OBJECT_ID":"2025-231E","EPOCH":"2026-07-14T21:09:05.420736","CLASSIFICATION_TYPE":"U","MEAN_MOTION":13.29326968,"ECCENTRICITY":0.00005197,"INCLINATION":50.0019,"RA_OF_ASC_NODE":76.3171,"ARG_OF_PERICENTER":336.455,"MEAN_ANOMALY":23.6298,"EPHEMERIS_TYPE":0,"NORAD_CAT_ID":65999,"ELEMENT_SET_NO":999,"REV_AT_EPOCH":3657,"BSTAR":0.000054030719,"MEAN_MOTION_DOT":-9.9e-7,"MEAN_MOTION_DDOT":0}]}
